{"spkid": "54541537", "covariance": {"epoch": "2460898.5", "data": [["2.33800668005846E-13", "-2.077652777317339E-13", "2.094357060353274E-11", "9.067338120925214E-13", "-3.771663505525269E-12", "6.173504315483563E-12"], ["-2.077652777317339E-13", "1.846795368676987E-13", "-1.861684029532178E-11", "-8.139580145687366E-13", "3.360761218635815E-12", "-5.483797640175458E-12"], ["2.094357060353274E-11", "-1.861684029532178E-11", "1.90551512071902E-9", "9.422140014678995E-11", "-3.227162756242209E-10", "5.498206025463145E-10"], ["9.067338120925214E-13", "-8.139580145687366E-13", "9.422140014678995E-11", "1.434269682168162E-11", "-1.372333482753342E-11", "2.554557970123073E-11"], ["-3.771663505525269E-12", "3.360761218635815E-12", "-3.227162756242209E-10", "-1.372333482753342E-11", "7.591607489645716E-11", "-1.040182516812614E-10"], ["6.173504315483563E-12", "-5.483797640175458E-12", "5.498206025463145E-10", "2.554557970123073E-11", "-1.040182516812614E-10", "1.680279400812996E-10"]], "elements": [{"label": "e", "name": "e", "sigma": 4.83529386910295e-07, "value": ".1648467899030594", "title": "eccentricity", "units": null}, {"title": "perihelion distance", "value": ".8571782062753781", "units": "au", "sigma": 4.29743571060346e-07, "name": "q", "label": "q"}, {"title": "time of perihelion passage", "value": "2460827.265703726626", "units": "TDB", "sigma": 4.36522063671359e-05, "name": "tp", "label": "tp"}, {"label": "node", "units": "deg", "value": "329.5510029786113", "title": "longitude of the ascending node", "name": "om", "sigma": 3.78717530907689e-06}, {"sigma": 8.71298312270012e-06, "name": "w", "title": "argument of perihelion", "value": "262.0421367844746", "units": "deg", "label": "peri"}, {"units": "deg", "value": "5.164232915975932", "title": "inclination", "sigma": 1.29625591640424e-05, "name": "i", "label": "i"}], "labels": ["e", "q", "tp", "node", "peri", "i"]}, "elements": [{"label": "e", "sigma": "4.8962E-7", "name": "e", "title": "eccentricity", "value": ".1633350427167519", "units": null}, {"label": "a", "title": "semi-major axis", "value": "1.033375126270919", "units": "au", "name": "a", "sigma": "6.0622E-8"}, {"label": "q", "value": ".8645887558790293", "title": "perihelion distance", "units": "au", "sigma": "4.5597E-7", "name": "q"}, {"label": "i", "units": "deg", "value": "5.28240457680262", "title": "inclination; angle with respect to x-y ecliptic plane", "sigma": "1.2625E-5", "name": "i"}, {"label": "node", "name": "om", "sigma": "4.3384E-6", "title": "longitude of the ascending node", "value": "329.4067493435211", "units": "deg"}, {"label": "peri", "name": "w", "sigma": "2.332E-5", "title": "argument of perihelion", "value": "264.5472635157157", "units": "deg"}, {"units": "deg", "title": "mean anomaly", "value": "348.8141969424458", "sigma": "6.1797E-5", "name": "ma", "label": "M"}, {"units": "TDB", "value": "2461212.422026980233", "title": "time of perihelion passage", "name": "tp", "sigma": "6.6909E-5", "label": "tp"}, {"name": "per", "sigma": "3.3764E-5", "title": "sidereal orbital period", "value": "383.6943749859378", "units": "d", "label": "period"}, {"sigma": "8.2563E-8", "name": "n", "title": "mean motion", "value": ".9382467491560017", "units": "deg/d", "label": "n"}, {"label": "Q", "title": "aphelion distance", "value": "1.202161496662808", "units": "au", "name": "ad", "sigma": "7.0524E-8"}], "epoch": "2461200.5"}